[{"OBJECT_NAME":"HIBARI","OBJECT_ID":"2021-102F","EPOCH":"2026-03-09T16:55:51.090816","MEAN_MOTION":15.29554512,"ECCENTRICITY":0.00120742,"INCLINATION":97.3381,"RA_OF_ASC_NODE":115.826,"ARG_OF_PERICENTER":186.5211,"MEAN_ANOMALY":173.5875,"EPHEMERIS_TYPE":0,"CLASSIFICATION_TYPE":"U","NORAD_CAT_ID":49400,"ELEMENT_SET_NO":999,"REV_AT_EPOCH":23897,"BSTAR":0.00042758039,"MEAN_MOTION_DOT":0.00012206,"MEAN_MOTION_DDOT":0},{"OBJECT_NAME":"STARLINK-33842","OBJECT_ID":"2025-091H","EPOCH":"2026-03-09T23:05:19.544064","MEAN_MOTION":15.27593628,"ECCENTRICITY":0.00013702,"INCLINATION":43.0006,"RA_OF_ASC_NODE":51.0074,"ARG_OF_PERICENTER":257.3435,"MEAN_ANOMALY":102.7264,"EPHEMERIS_TYPE":0,"CLASSIFICATION_TYPE":"U","NORAD_CAT_ID":63782,"ELEMENT_SET_NO":999,"REV_AT_EPOCH":4903,"BSTAR":0.0014940831,"MEAN_MOTION_DOT":0.00041098,"MEAN_MOTION_DDOT":0}]
